XCUBE-1                 
1 62400U 24247Z   26068.48297321  .00009773  00000+0  36224-3 0  9994
2 62400  44.9938 117.7807 0005235 331.1499  28.9094 15.27910558 67702
STARLINK-35342          
1 66181U 25243E   26068.70709801  .00022539  00000+0  77067-3 0  9992
2 66181  53.1573 245.3681 0001089  48.9697 311.1397 15.30205220 20656
